H1 CPF 01  gfz 2021 07 07 12  6882 tandemx   
H2 1003001  6202 36605    2021 07 07 12 59 42 2021 07 12 00 00 42   120 1 1  0 0 0
H9
10 0 59404  56142.000000  0    5219263.866   4138722.751  -1767688.984
10 0 59404  56262.000000  0    5465899.346   4102418.543   -880342.718
10 0 59404  56382.000000  0    5615785.425   3990998.189     22485.528
10 0 59404  56502.000000  0    5664962.698   3808093.763    924917.056
10 0 59404  56622.000000  0    5611323.305   3558655.400   1811063.986
10 0 59404  56742.000000  0    5454672.916   3248831.220   2665317.919
10 0 59404  56862.000000  0    5196753.647   2885824.368   3472633.698
10 0 59404  56982.000000  0    4841227.253   2477729.305   4218801.937
10 0 59404  57102.000000  0    4393618.365   2033351.404   4890702.290
10 0 59404  57222.000000  0    3861224.313   1562017.697   5476534.593
10 0 59404  57342.000000  0    3252987.470   1073380.340   5966026.590
10 0 59404  57462.000000  0    2579336.114    577217.115   6350608.087
10 0 59404  57582.000000  0    1852000.262     83236.421   6623553.286
10 0 59404  57702.000000  0    1083804.842   -399111.213   6780093.601
10 0 59404  57822.000000  0     288440.845   -860813.634   6817497.320
10 0 59404  57942.000000  0    -519779.813  -1293464.931   6735113.240
10 0 59404  58062.000000  0   -1326181.487  -1689418.256   6534380.630
10 0 59404  58182.000000  0   -2115990.017  -2041920.908   6218804.116
10 0 59404  58302.000000  0   -2874601.027  -2345228.840   5793896.820
10 0 59404  58422.000000  0   -3587851.596  -2594702.208   5267092.881
10 0 59404  58542.000000  0   -4242290.188  -2786878.833   4647622.719
10 0 59404  58662.000000  0   -4825435.506  -2919522.729   3946355.211
10 0 59404  58782.000000  0   -5326020.724  -2991646.733   3175610.158
10 0 59404  58902.000000  0   -5734218.458  -3003509.673   2348944.051
10 0 59404  59022.000000  0   -6041842.141  -2956588.499   1480910.493
10 0 59404  59142.000000  0   -6242516.835  -2853524.717    586798.142
10 0 59404  59262.000000  0   -6331814.186  -2698044.900   -317645.900
10 0 59404  59382.000000  0   -6307350.060  -2494859.487  -1216502.124
10 0 59404  59502.000000  0   -6168839.489  -2249540.677  -2093969.023
10 0 59404  59622.000000  0   -5918108.015  -1968383.874  -2934648.169
10 0 59404  59742.000000  0   -5559061.873  -1658256.415  -3723818.970
10 0 59404  59862.000000  0   -5097617.147  -1326437.496  -4447697.907
10 0 59404  59982.000000  0   -4541591.063   -980453.398  -5093677.068
10 0 59404  60102.000000  0   -3900557.831   -627911.540  -5650538.407
10 0 59404  60222.000000  0   -3185673.111   -276337.785  -6108639.209
10 0 59404  60342.000000  0   -2409472.624     66979.632  -6460067.439
10 0 59404  60462.000000  0   -1585648.814    395136.020  -6698766.682
10 0 59404  60582.000000  0    -728809.257    701743.486  -6820629.556
10 0 59404  60702.000000  0     145777.992    981051.375  -6823560.068
10 0 59404  60822.000000  0    1022448.980   1228050.456  -6707505.329
10 0 59404  60942.000000  0    1885417.660   1438560.242  -6474459.233
10 0 59404  61062.000000  0    2719054.779   1609299.393  -6128432.043
10 0 59404  61182.000000  0    3508166.745   1737936.457  -5675388.009
10 0 59404  61302.000000  0    4238269.259   1823120.511  -5123152.120
10 0 59404  61422.000000  0    4895854.612   1864492.299  -4481287.365
10 0 59404  61542.000000  0    5468647.153   1862674.756  -3760939.579
10 0 59404  61662.000000  0    5945839.907   1819242.377  -2974652.845
10 0 59404  61782.000000  0    6318309.047   1736670.303  -2136158.386
10 0 59404  61902.000000  0    6578800.766   1618264.237  -1260137.131
10 0 59404  62022.000000  0    6722083.534   1468071.463   -361961.027
10 0 59404  62142.000000  0    6745062.035   1290774.926    542582.257
10 0 59404  62262.000000  0    6646847.480   1091574.042   1437573.415
10 0 59404  62382.000000  0    6428787.149    876054.479   2307249.776
10 0 59404  62502.000000  0    6094446.456    650049.227   3136293.016
10 0 59404  62622.000000  0    5649546.574    419496.007   3910106.230
10 0 59404  62742.000000  0    5101857.982    190294.199   4615076.487
10 0 59404  62862.000000  0    4461056.014    -31833.879   5238815.594
10 0 59404  62982.000000  0    3738539.726   -241476.730   5770378.491
10 0 59404  63102.000000  0    2947218.569   -433656.675   6200450.851
10 0 59404  63222.000000  0    2101274.716   -603940.068   6521506.605
10 0 59404  63342.000000  0    1215904.371   -748533.725   6727934.257
10 0 59404  63462.000000  0     307040.925   -864365.597   6816130.234
10 0 59404  63582.000000  0    -608933.273   -949147.542   6784556.599
10 0 59404  63702.000000  0   -1515481.384  -1001420.046   6633765.263
10 0 59404  63822.000000  0   -2396209.227  -1020577.313   6366388.268
10 0 59404  63942.000000  0   -3235159.968  -1006872.478   5987094.905
10 0 59404  64062.000000  0   -4017104.653   -961403.267   5502517.141
10 0 59404  64182.000000  0   -4727823.683   -886079.247   4921140.310
10 0 59404  64302.000000  0   -5354372.612   -783569.987   4253159.741
10 0 59404  64422.000000  0   -5885326.198   -657235.156   3510305.323
10 0 59404  64542.000000  0   -6310995.192   -511038.015   2705637.592
10 0 59404  64662.000000  0   -6623613.524   -349444.138   1853318.952
10 0 59404  64782.000000  0   -6817490.360   -177307.379    968360.416
10 0 59404  64902.000000  0   -6889120.406       253.222     66350.050
10 0 59404  65022.000000  0   -6837250.461    177983.339   -836830.240
10 0 59404  65142.000000  0   -6662899.934    350626.740  -1725293.700
10 0 59404  65262.000000  0   -6369335.524    513057.901  -2583435.106
10 0 59404  65382.000000  0   -5962003.788    660411.125  -3396211.446
10 0 59404  65502.000000  0   -5448417.779    788203.121  -4149410.646
10 0 59404  65622.000000  0   -4838004.941    892445.609  -4829898.950
10 0 59404  65742.000000  0   -4141921.003    969745.093  -5425845.342
10 0 59404  65862.000000  0   -3372835.099   1017387.965  -5926918.712
10 0 59404  65982.000000  0   -2544691.149   1033408.759  -6324456.276
10 0 59404  66102.000000  0   -1672451.468   1016641.221  -6611601.475
10 0 59404  66222.000000  0    -771825.781    966752.289  -6783411.225
10 0 59404  66342.000000  0     141007.828    884256.939  -6836930.375
10 0 59404  66462.000000  0    1049685.392    770514.823  -6771237.120
10 0 59404  66582.000000  0    1937943.698    627708.191  -6587459.807
10 0 59404  66702.000000  0    2789905.611    458801.537  -6288759.345
10 0 59404  66822.000000  0    3590359.106    267484.031  -5880280.592
10 0 59404  66942.000000  0    4325025.928     58094.164  -5369071.981
10 0 59404  67062.000000  0    4980816.648   -164471.204  -4763975.644
10 0 59404  67182.000000  0    5546070.050   -394862.262  -4075486.241
10 0 59404  67302.000000  0    6010768.913   -627394.722  -3315578.358
10 0 59404  67422.000000  0    6366728.460   -856178.961  -2497506.268
10 0 59404  67542.000000  0    6607753.539  -1075257.359  -1635577.229
10 0 59404  67662.000000  0    6729759.004  -1278745.853   -744901.330
10 0 59404  67782.000000  0    6730849.439  -1460976.738    158876.471
10 0 59404  67902.000000  0    6611356.612  -1616639.165   1059857.351
10 0 59404  68022.000000  0    6373831.235  -1740913.696   1942176.886
10 0 59404  68142.000000  0    6022990.567  -1829597.492   2790293.533
10 0 59404  68262.000000  0    5565621.327  -1879215.566   3589271.405
10 0 59404  68382.000000  0    5010441.292  -1887116.878   4325049.257
10 0 59404  68502.000000  0    4367924.345  -1851551.965   4984690.728
10 0 59404  68622.000000  0    3650094.639  -1771730.105   5556612.381
10 0 59404  68742.000000  0    2870292.288  -1647856.112   6030786.025
10 0 59404  68862.000000  0    2042917.275  -1481145.225   6398909.129
10 0 59404  68982.000000  0    1183158.546  -1273816.747   6654544.540
10 0 59404  69102.000000  0     306711.366  -1029065.686   6793227.473
10 0 59404  69222.000000  0    -570510.622   -751012.854   6812537.818
10 0 59404  69342.000000  0   -1432663.375   -444635.272   6712138.689
10 0 59404  69462.000000  0   -2264257.191   -115677.334   6493781.812
10 0 59404  69582.000000  0   -3050433.861    229456.210   6161279.373
10 0 59404  69702.000000  0   -3777233.047    583823.538   5720442.594
10 0 59404  69822.000000  0   -4431844.041    940083.118   5178986.296
10 0 59404  69942.000000  0   -5002837.530   1290643.351   4546399.811
10 0 59404  70062.000000  0   -5480373.253   1627822.023   3833785.486
10 0 59404  70182.000000  0   -5856377.844   1944011.570   3053666.442
10 0 59404  70302.000000  0   -6124689.897   2231846.887   2219767.569
10 0 59404  70422.000000  0   -6281169.332   2484371.846   1346772.362
10 0 59404  70542.000000  0   -6323767.290   2695200.745    450058.644
10 0 59404  70662.000000  0   -6252552.843   2858669.552   -454580.399
10 0 59404  70782.000000  0   -6069697.317   2969973.310  -1351223.202
10 0 59404  70902.000000  0   -5779416.035   3025286.243  -2224108.793
10 0 59404  71022.000000  0   -5387868.819   3021861.954  -3057922.327
10 0 59404  71142.000000  0   -4903021.753   2958109.923  -3838068.662
10 0 59404  71262.000000  0   -4334475.688   2833647.962  -4550928.888
10 0 59404  71382.000000  0   -3693266.168   2649329.267  -5184094.778
10 0 59404  71502.000000  0   -2991640.491   2407244.167  -5726576.978
10 0 59404  71622.000000  0   -2242818.879   2110697.996  -6168985.816
10 0 59404  71742.000000  0   -1460741.660   1764164.672  -6503683.754
10 0 59404  71862.000000  0    -659809.479   1373217.184  -6724904.577
10 0 59404  71982.000000  0     145378.018    944437.339  -6828842.379
10 0 59404  72102.000000  0     940281.481    485306.451  -6813709.629
10 0 59404  72222.000000  0    1710678.670      4077.600  -6679766.651
10 0 59404  72342.000000  0    2442913.562   -490369.471  -6429316.492
10 0 59404  72462.000000  0    3124133.235   -988687.565  -6066670.092
10 0 59404  72582.000000  0    3742511.185  -1481233.828  -5598079.236
99
